[{"OBJECT_NAME":"YAOGAN-30 04B","OBJECT_ID":"2017-085B","EPOCH":"2026-03-09T23:08:06.218304","MEAN_MOTION":15.02136468,"ECCENTRICITY":0.00051709,"INCLINATION":34.9961,"RA_OF_ASC_NODE":34.6701,"ARG_OF_PERICENTER":206.1156,"MEAN_ANOMALY":153.9292,"EPHEMERIS_TYPE":0,"CLASSIFICATION_TYPE":"U","NORAD_CAT_ID":43082,"ELEMENT_SET_NO":999,"REV_AT_EPOCH":44776,"BSTAR":0.0003202307,"MEAN_MOTION_DOT":4.272e-5,"MEAN_MOTION_DDOT":0},{"OBJECT_NAME":"STARLINK-34723","OBJECT_ID":"2025-152A","EPOCH":"2026-03-09T13:25:56.392608","MEAN_MOTION":15.05672971,"ECCENTRICITY":0.00018714,"INCLINATION":97.6019,"RA_OF_ASC_NODE":285.3137,"ARG_OF_PERICENTER":83.883,"MEAN_ANOMALY":276.261,"EPHEMERIS_TYPE":0,"CLASSIFICATION_TYPE":"U","NORAD_CAT_ID":64842,"ELEMENT_SET_NO":999,"REV_AT_EPOCH":3539,"BSTAR":0.0005690792,"MEAN_MOTION_DOT":8.165e-5,"MEAN_MOTION_DDOT":0}]
